start=new Date('2022-01-29T00:00:00.000Z').valueOf();
sats=[{"OBJECT_ID":"2020-070Q","MEAN_MOTION":"15.06395548","ELEMENT_SET_NO":"999","NORAD_CAT_ID":"46546","REF_FRAME":"TEME","DECAY_DATE":null,"REV_AT_EPOCH":"7324","APOAPSIS":"548.351","MEAN_ELEMENT_THEORY":"SGP4","TLE_LINE2":"2 46546  53.0537  75.4499 0001623  64.4009 295.7148 15.06395548 73241","ARG_OF_PERICENTER":"64.4009","FILE":"3286235","TIME_SYSTEM":"UTC","OBJECT_TYPE":"PAYLOAD","RCS_SIZE":"LARGE","COUNTRY_CODE":"US","EPHEMERIS_TYPE":"0","RA_OF_ASC_NODE":"75.4499","BSTAR":"-0.00006380600000","LAUNCH_DATE":"2020-10-06","SEMIMAJOR_AXIS":"6925.362","TLE_LINE1":"1 46546U 20070Q   22028.55917013 -.00001232  00000-0 -63806-4 0  9996","MEAN_ANOMALY":"295.7148","MEAN_MOTION_DDOT":"0.0000000000000","INCLINATION":"53.0537","PERIOD":"95.592","MEAN_MOTION_DOT":"-0.00001232","ECCENTRICITY":"0.00016230","CLASSIFICATION_TYPE":"U","OBJECT_NAME":"STARLINK-1697","EPOCH":"2022-01-28T13:25:12.299232","PERIAPSIS":"546.103","GP_ID":"194843637","CENTER_NAME":"EARTH","SITE":"AFETR"},{"REV_AT_EPOCH":"7325","DECAY_DATE":null,"REF_FRAME":"TEME","NORAD_CAT_ID":"46547","APOAPSIS":"548.381","FILE":"3286235","ARG_OF_PERICENTER":"68.8249","TLE_LINE2":"2 46547  53.0537  75.3217 0001662  68.8249 291.2917 15.06394694 73253","MEAN_ELEMENT_THEORY":"SGP4","OBJECT_TYPE":"PAYLOAD","TIME_SYSTEM":"UTC","OBJECT_ID":"2020-070R","ELEMENT_SET_NO":"999","MEAN_MOTION":"15.06394694","INCLINATION":"53.0537","MEAN_MOTION_DDOT":"0.0000000000000","ECCENTRICITY":"0.00016620","MEAN_MOTION_DOT":"-0.00002072","PERIOD":"95.592","GP_ID":"194844389","EPOCH":"2022-01-28T14:07:40.125504","PERIAPSIS":"546.079","CLASSIFICATION_TYPE":"U","OBJECT_NAME":"STARLINK-1698","CENTER_NAME":"EARTH","SITE":"AFETR","COUNTRY_CODE":"US","RCS_SIZE":"LARGE","EPHEMERIS_TYPE":"0","LAUNCH_DATE":"2020-10-06","BSTAR":"-0.00012023000000","SEMIMAJOR_AXIS":"6925.365","RA_OF_ASC_NODE":"75.3217","MEAN_ANOMALY":"291.2917","TLE_LINE1":"1 46547U 20070R   22028.58865886 -.00002072  00000-0 -12023-3 0  9997"},{"CENTER_NAME":"EARTH","SITE":"AFETR","OBJECT_NAME":"STARLINK-1699","CLASSIFICATION_TYPE":"U","EPOCH":"2022-01-28T12:48:03.247488","PERIAPSIS":"546.415","GP_ID":"194845139","PERIOD":"95.592","ECCENTRICITY":"0.00011680","MEAN_MOTION_DOT":"-0.00000530","MEAN_MOTION_DDOT":"0.0000000000000","INCLINATION":"53.0541","TLE_LINE1":"1 46548U 20070S   22028.53337092 -.00000530  00000-0 -16678-4 0  9994","MEAN_ANOMALY":"275.0912","RA_OF_ASC_NODE":"75.5785","SEMIMAJOR_AXIS":"6925.359","LAUNCH_DATE":"2020-10-06","BSTAR":"-0.00001667800000","EPHEMERIS_TYPE":"0","RCS_SIZE":"LARGE","COUNTRY_CODE":"US","TIME_SYSTEM":"UTC","OBJECT_TYPE":"PAYLOAD","TLE_LINE2":"2 46548  53.0541  75.5785 0001168  85.0211 275.0912 15.06396522 73248","MEAN_ELEMENT_THEORY":"SGP4","FILE":"3286235","ARG_OF_PERICENTER":"85.0211","APOAPSIS":"548.033","NORAD_CAT_ID":"46548","REF_FRAME":"TEME","DECAY_DATE":null,"REV_AT_EPOCH":"7324","MEAN_MOTION":"15.06396522","ELEMENT_SET_NO":"999","OBJECT_ID":"2020-070S"},{"ELEMENT_SET_NO":"999","MEAN_MOTION":"15.06387879","OBJECT_ID":"2020-070T","TIME_SYSTEM":"UTC","OBJECT_TYPE":"PAYLOAD","TLE_LINE2":"2 46549  53.0538  75.7345 0001298  76.0070 284.1063 15.06387879 73238","MEAN_ELEMENT_THEORY":"SGP4","FILE":"3286235","ARG_OF_PERICENTER":"76.0070","APOAPSIS":"548.150","REF_FRAME":"TEME","NORAD_CAT_ID":"46549","REV_AT_EPOCH":"7323","DECAY_DATE":null,"MEAN_ANOMALY":"284.1063","TLE_LINE1":"1 46549U 20070T   22028.49651699 -.00000940  00000-0 -44258-4 0  9992","SEMIMAJOR_AXIS":"6925.386","LAUNCH_DATE":"2020-10-06","BSTAR":"-0.00004425800000","RA_OF_ASC_NODE":"75.7345","EPHEMERIS_TYPE":"0","RCS_SIZE":"LARGE","COUNTRY_CODE":"US","SITE":"AFETR","CENTER_NAME":"EARTH","PERIAPSIS":"546.352","EPOCH":"2022-01-28T11:54:59.067936","OBJECT_NAME":"STARLINK-1700","CLASSIFICATION_TYPE":"U","GP_ID":"194843887","PERIOD":"95.593","MEAN_MOTION_DOT":"-0.00000940","ECCENTRICITY":"0.00012980","INCLINATION":"53.0538","MEAN_MOTION_DDOT":"0.0000000000000"},{"MEAN_MOTION_DDOT":"0.0000000000000","INCLINATION":"53.0543","PERIOD":"95.593","MEAN_MOTION_DOT":"-0.00002103","ECCENTRICITY":"0.00014840","CLASSIFICATION_TYPE":"U","OBJECT_NAME":"STARLINK-1701","PERIAPSIS":"546.218","EPOCH":"2022-01-28T13:09:17.337312","GP_ID":"194813592","SITE":"AFETR","CENTER_NAME":"EARTH","RCS_SIZE":"LARGE","COUNTRY_CODE":"US","EPHEMERIS_TYPE":"0","RA_OF_ASC_NODE":"75.5067","BSTAR":"-0.00012239000000","LAUNCH_DATE":"2020-10-06","SEMIMAJOR_AXIS":"6925.381","TLE_LINE1":"1 46550U 20070U   22028.54811733 -.00002103  00000-0 -12239-3 0  9993","MEAN_ANOMALY":"301.4629","NORAD_CAT_ID":"46550","REF_FRAME":"TEME","DECAY_DATE":null,"REV_AT_EPOCH":"7324","APOAPSIS":"548.274","TLE_LINE2":"2 46550  53.0543  75.5067 0001484  58.6505 301.4629 15.06389421 73248","MEAN_ELEMENT_THEORY":"SGP4","ARG_OF_PERICENTER":"58.6505","FILE":"3285972","TIME_SYSTEM":"UTC","OBJECT_TYPE":"PAYLOAD","OBJECT_ID":"2020-070U","MEAN_MOTION":"15.06389421","ELEMENT_SET_NO":"999"},{"SEMIMAJOR_AXIS":"6925.375","LAUNCH_DATE":"2020-10-06","BSTAR":"-0.00007731200000","RA_OF_ASC_NODE":"60.6835","MEAN_ANOMALY":"286.3090","TLE_LINE1":"1 46552U 20070W   22028.50711055 -.00001433  00000-0 -77312-4 0  9996","COUNTRY_CODE":"US","RCS_SIZE":"LARGE","EPHEMERIS_TYPE":"0","GP_ID":"194814344","EPOCH":"2022-01-28T12:10:14.351520","PERIAPSIS":"546.146","OBJECT_NAME":"STARLINK-1649","CLASSIFICATION_TYPE":"U","CENTER_NAME":"EARTH","SITE":"AFETR","INCLINATION":"53.0536","MEAN_MOTION_DDOT":"0.0000000000000","MEAN_MOTION_DOT":"-0.00001433","ECCENTRICITY":"0.00015800","PERIOD":"95.593","OBJECT_ID":"2020-070W","ELEMENT_SET_NO":"999","MEAN_MOTION":"15.06391277","FILE":"3285972","ARG_OF_PERICENTER":"73.8073","TLE_LINE2":"2 46552  53.0536  60.6835 0001580  73.8073 286.3090 15.06391277 73454","MEAN_ELEMENT_THEORY":"SGP4","OBJECT_TYPE":"PAYLOAD","TIME_SYSTEM":"UTC","REV_AT_EPOCH":"7345","DECAY_DATE":null,"REF_FRAME":"TEME","NORAD_CAT_ID":"46552","APOAPSIS":"548.335"},{"EPHEMERIS_TYPE":"0","COUNTRY_CODE":"US","RCS_SIZE":"LARGE","TLE_LINE1":"1 46553U 20070X   22028.46884018 -.00000837  00000-0 -37297-4 0  9997","MEAN_ANOMALY":"289.9243","RA_OF_ASC_NODE":"45.8631","LAUNCH_DATE":"2020-10-06","SEMIMAJOR_AXIS":"6925.362","BSTAR":"-0.00003729700000","ECCENTRICITY":"0.00015310","MEAN_MOTION_DOT":"-0.00000837","PERIOD":"95.592","MEAN_MOTION_DDOT":"0.0000000000000","INCLINATION":"53.0539","CENTER_NAME":"EARTH","SITE":"AFETR","GP_ID":"194844640","OBJECT_NAME":"STARLINK-1664","CLASSIFICATION_TYPE":"U","EPOCH":"2022-01-28T11:15:07.791552","PERIAPSIS":"546.167","MEAN_MOTION":"15.06395555","ELEMENT_SET_NO":"999","OBJECT_ID":"2020-070X","APOAPSIS":"548.287","DECAY_DATE":null,"REV_AT_EPOCH":"7365","NORAD_CAT_ID":"46553","REF_FRAME":"TEME","OBJECT_TYPE":"PAYLOAD","TIME_SYSTEM":"UTC","ARG_OF_PERICENTER":"70.1911","FILE":"3286235","MEAN_ELEMENT_THEORY":"SGP4","TLE_LINE2":"2 46553  53.0539  45.8631 0001531  70.1911 289.9243 15.06395555 73658"},{"RCS_SIZE":"LARGE","COUNTRY_CODE":"US","EPHEMERIS_TYPE":"0","RA_OF_ASC_NODE":"60.9177","BSTAR":"0.00006964300000","LAUNCH_DATE":"2020-10-06","SEMIMAJOR_AXIS":"6925.373","TLE_LINE1":"1 46554U 20070Y   22028.45551888  .00000756  00000-0  69643-4 0  9991","MEAN_ANOMALY":"279.4681","MEAN_MOTION_DDOT":"0.0000000000000","INCLINATION":"53.0540","PERIOD":"95.593","ECCENTRICITY":"0.00014570","MEAN_MOTION_DOT":"0.00000756","OBJECT_NAME":"STARLINK-1671","CLASSIFICATION_TYPE":"U","PERIAPSIS":"546.228","EPOCH":"2022-01-28T10:55:56.831232","GP_ID":"194843388","SITE":"AFETR","CENTER_NAME":"EARTH","OBJECT_ID":"2020-070Y","MEAN_MOTION":"15.06392188","ELEMENT_SET_NO":"999","NORAD_CAT_ID":"46554","REF_FRAME":"TEME","DECAY_DATE":null,"REV_AT_EPOCH":"7344","APOAPSIS":"548.247","TLE_LINE2":"2 46554  53.0540  60.9177 0001457  80.6472 279.4681 15.06392188 73445","MEAN_ELEMENT_THEORY":"SGP4","ARG_OF_PERICENTER":"80.6472","FILE":"3286235","TIME_SYSTEM":"UTC","OBJECT_TYPE":"PAYLOAD"},{"COUNTRY_CODE":"US","RCS_SIZE":"LARGE","EPHEMERIS_TYPE":"0","LAUNCH_DATE":"2020-10-06","SEMIMAJOR_AXIS":"6925.342","BSTAR":"-0.00002611200000","RA_OF_ASC_NODE":"75.6649","MEAN_ANOMALY":"290.9482","TLE_LINE1":"1 46556U 20070AA  22028.51493362 -.00000670  00000-0 -26112-4 0  9993","INCLINATION":"53.0549","MEAN_MOTION_DDOT":"0.0000000000000","MEAN_MOTION_DOT":"-0.00000670","ECCENTRICITY":"0.00015020","PERIOD":"95.592","GP_ID":"194813093","EPOCH":"2022-01-28T12:21:30.264768","PERIAPSIS":"546.167","CLASSIFICATION_TYPE":"U","OBJECT_NAME":"STARLINK-1676","SITE":"AFETR","CENTER_NAME":"EARTH","OBJECT_ID":"2020-070AA","ELEMENT_SET_NO":"999","MEAN_MOTION":"15.06402051","REV_AT_EPOCH":"7324","DECAY_DATE":null,"REF_FRAME":"TEME","NORAD_CAT_ID":"46556","APOAPSIS":"548.247","FILE":"3285972","ARG_OF_PERICENTER":"69.1668","MEAN_ELEMENT_THEORY":"SGP4","TLE_LINE2":"2 46556  53.0549  75.6649 0001502  69.1668 290.9482 15.06402051 73249","OBJECT_TYPE":"PAYLOAD","TIME_SYSTEM":"UTC"},{"OBJECT_ID":"2020-070AB","ELEMENT_SET_NO":"999","MEAN_MOTION":"15.06389531","REV_AT_EPOCH":"7343","DECAY_DATE":null,"REF_FRAME":"TEME","NORAD_CAT_ID":"46557","APOAPSIS":"548.172","ARG_OF_PERICENTER":"80.5436","FILE":"3286235","TLE_LINE2":"2 46557  53.0556  61.3545 0001338  80.5436 279.5705 15.06389531 73431","MEAN_ELEMENT_THEORY":"SGP4","OBJECT_TYPE":"PAYLOAD","TIME_SYSTEM":"UTC","COUNTRY_CODE":"US","RCS_SIZE":"LARGE","EPHEMERIS_TYPE":"0","LAUNCH_DATE":"2020-10-06","BSTAR":"-0.00005484900000","SEMIMAJOR_AXIS":"6925.381","RA_OF_ASC_NODE":"61.3545","MEAN_ANOMALY":"279.5705","TLE_LINE1":"1 46557U 20070AB  22028.35967729 -.00001098  00000-0 -54849-4 0  9992","INCLINATION":"53.0556","MEAN_MOTION_DDOT":"0.0000000000000","MEAN_MOTION_DOT":"-0.00001098","ECCENTRICITY":"0.00013380","PERIOD":"95.593","GP_ID":"194844390","EPOCH":"2022-01-28T08:37:56.117856","PERIAPSIS":"546.319","OBJECT_NAME":"STARLINK-1679","CLASSIFICATION_TYPE":"U","SITE":"AFETR","CENTER_NAME":"EARTH"}];
